start=new Date('2023-03-07T00:00:00.000Z').valueOf();
sats=[{"ARG_OF_PERICENTER":"74.8523","DECAY_DATE":null,"SITE":"AFETR","TLE_LINE1":"1 52305U 22041AW  23065.80847294  .00022051  00000-0  13993-2 0  9999","MEAN_MOTION":"15.08838913","MEAN_ELEMENT_THEORY":"SGP4","EPOCH":"2023-03-06T19:24:12.062016","REF_FRAME":"TEME","ECCENTRICITY":"0.00019420","EPHEMERIS_TYPE":"0","INCLINATION":"53.2170","MEAN_MOTION_DOT":"0.00022051","OBJECT_TYPE":"PAYLOAD","PERIAPSIS":"538.405","LAUNCH_DATE":"2022-04-21","CLASSIFICATION_TYPE":"U","MEAN_MOTION_DDOT":"0.0000000000000","ELEMENT_SET_NO":"999","OBJECT_NAME":"STARLINK-3724","RA_OF_ASC_NODE":"352.2913","COUNTRY_CODE":"US","REV_AT_EPOCH":"4861","TLE_LINE2":"2 52305  53.2170 352.2913 0001942  74.8523 285.2683 15.08838913 48614","PERIOD":"95.438","TIME_SYSTEM":"UTC","RCS_SIZE":"LARGE","BSTAR":"0.00139930000000","OBJECT_ID":"2022-041AW","NORAD_CAT_ID":"52305","APOAPSIS":"541.092","CENTER_NAME":"EARTH","FILE":"3853141","SEMIMAJOR_AXIS":"6917.884","GP_ID":"227627182","MEAN_ANOMALY":"285.2683"},{"GP_ID":"227601628","MEAN_ANOMALY":"298.2990","NORAD_CAT_ID":"52306","APOAPSIS":"540.992","CENTER_NAME":"EARTH","FILE":"3853017","SEMIMAJOR_AXIS":"6917.865","BSTAR":"0.00061607000000","OBJECT_ID":"2022-041AX","TLE_LINE2":"2 52306  53.2196 342.3018 0001825  61.8187 298.2990 15.08845056 49961","PERIOD":"95.437","TIME_SYSTEM":"UTC","RCS_SIZE":"LARGE","REV_AT_EPOCH":"4996","COUNTRY_CODE":"US","RA_OF_ASC_NODE":"342.3018","OBJECT_NAME":"STARLINK-3747","ELEMENT_SET_NO":"999","CLASSIFICATION_TYPE":"U","LAUNCH_DATE":"2022-04-21","MEAN_MOTION_DDOT":"0.0000000000000","PERIAPSIS":"538.467","EPHEMERIS_TYPE":"0","MEAN_MOTION_DOT":"0.00009532","INCLINATION":"53.2196","OBJECT_TYPE":"PAYLOAD","REF_FRAME":"TEME","ECCENTRICITY":"0.00018250","TLE_LINE1":"1 52306U 22041AX  23065.78361795  .00009532  00000-0  61607-3 0  9999","EPOCH":"2023-03-06T18:48:24.590880","MEAN_MOTION":"15.08845056","MEAN_ELEMENT_THEORY":"SGP4","ARG_OF_PERICENTER":"61.8187","DECAY_DATE":null,"SITE":"AFETR"},{"PERIAPSIS":"538.736","MEAN_MOTION_DDOT":"0.0000000000000","LAUNCH_DATE":"2022-04-21","CLASSIFICATION_TYPE":"U","EPOCH":"2023-03-06T04:49:48.325728","MEAN_MOTION":"15.08869311","MEAN_ELEMENT_THEORY":"SGP4","TLE_LINE1":"1 52307U 22041AY  23065.20125377  .00039987  00000-0  25143-2 0  9992","SITE":"AFETR","DECAY_DATE":null,"ARG_OF_PERICENTER":"108.6957","MEAN_MOTION_DOT":"0.00039987","INCLINATION":"53.2167","OBJECT_TYPE":"PAYLOAD","EPHEMERIS_TYPE":"0","ECCENTRICITY":"0.00013290","REF_FRAME":"TEME","OBJECT_ID":"2022-041AY","BSTAR":"0.00251430000000","TIME_SYSTEM":"UTC","RCS_SIZE":"LARGE","TLE_LINE2":"2 52307  53.2167 354.9164 0001329 108.6957 251.4179 15.08869311 48526","PERIOD":"95.436","MEAN_ANOMALY":"251.4179","GP_ID":"227628183","FILE":"3853141","SEMIMAJOR_AXIS":"6917.791","NORAD_CAT_ID":"52307","CENTER_NAME":"EARTH","APOAPSIS":"540.575","OBJECT_NAME":"STARLINK-3755","ELEMENT_SET_NO":"999","REV_AT_EPOCH":"4852","COUNTRY_CODE":"US","RA_OF_ASC_NODE":"354.9164"},{"RA_OF_ASC_NODE":"342.3401","REV_AT_EPOCH":"4996","COUNTRY_CODE":"US","ELEMENT_SET_NO":"999","OBJECT_NAME":"STARLINK-3745","SEMIMAJOR_AXIS":"6917.893","FILE":"3852973","APOAPSIS":"540.597","CENTER_NAME":"EARTH","NORAD_CAT_ID":"52308","MEAN_ANOMALY":"294.0670","GP_ID":"227600698","RCS_SIZE":"LARGE","TIME_SYSTEM":"UTC","PERIOD":"95.438","TLE_LINE2":"2 52308  53.2179 342.3401 0001212  66.0449 294.0670 15.08835755 49962","OBJECT_ID":"2022-041AZ","BSTAR":"0.00038277000000","ECCENTRICITY":"0.00012120","REF_FRAME":"TEME","OBJECT_TYPE":"PAYLOAD","MEAN_MOTION_DOT":"0.00005808","INCLINATION":"53.2179","EPHEMERIS_TYPE":"0","DECAY_DATE":null,"SITE":"AFETR","ARG_OF_PERICENTER":"66.0449","MEAN_ELEMENT_THEORY":"SGP4","MEAN_MOTION":"15.08835755","EPOCH":"2023-03-06T18:37:48.679104","TLE_LINE1":"1 52308U 22041AZ  23065.77625786  .00005808  00000-0  38277-3 0  9992","MEAN_MOTION_DDOT":"0.0000000000000","CLASSIFICATION_TYPE":"U","LAUNCH_DATE":"2022-04-21","PERIAPSIS":"538.920"},{"PERIAPSIS":"538.699","LAUNCH_DATE":"2022-04-21","CLASSIFICATION_TYPE":"U","MEAN_MOTION_DDOT":"0.0000000000000","ARG_OF_PERICENTER":"81.0041","DECAY_DATE":null,"SITE":"AFETR","TLE_LINE1":"1 52309U 22041BA  23065.77993602  .00009870  00000-0  63739-3 0  9992","EPOCH":"2023-03-06T18:43:06.472128","MEAN_MOTION":"15.08836480","MEAN_ELEMENT_THEORY":"SGP4","ECCENTRICITY":"0.00015280","REF_FRAME":"TEME","EPHEMERIS_TYPE":"0","OBJECT_TYPE":"PAYLOAD","MEAN_MOTION_DOT":"0.00009870","INCLINATION":"53.2193","PERIOD":"95.438","TLE_LINE2":"2 52309  53.2193 342.3182 0001528  81.0041 279.1124 15.08836480 49964","RCS_SIZE":"LARGE","TIME_SYSTEM":"UTC","BSTAR":"0.00063739000000","OBJECT_ID":"2022-041BA","CENTER_NAME":"EARTH","APOAPSIS":"540.813","NORAD_CAT_ID":"52309","SEMIMAJOR_AXIS":"6917.891","FILE":"3853008","GP_ID":"227601940","MEAN_ANOMALY":"279.1124","ELEMENT_SET_NO":"999","OBJECT_NAME":"STARLINK-3756","RA_OF_ASC_NODE":"342.3182","REV_AT_EPOCH":"4996","COUNTRY_CODE":"US"},{"BSTAR":"-0.00061020000000","OBJECT_ID":"2022-041BB","TLE_LINE2":"2 52310  53.2162 342.3692 0001342  69.6324 290.4812 15.08823285 49967","PERIOD":"95.439","TIME_SYSTEM":"UTC","RCS_SIZE":"LARGE","GP_ID":"227601945","MEAN_ANOMALY":"290.4812","NORAD_CAT_ID":"52310","CENTER_NAME":"EARTH","APOAPSIS":"540.725","FILE":"3853008","SEMIMAJOR_AXIS":"6917.931","OBJECT_NAME":"STARLINK-3688","ELEMENT_SET_NO":"999","REV_AT_EPOCH":"4996","COUNTRY_CODE":"US","RA_OF_ASC_NODE":"342.3692","PERIAPSIS":"538.868","LAUNCH_DATE":"2022-04-21","CLASSIFICATION_TYPE":"U","MEAN_MOTION_DDOT":"0.0000000000000","TLE_LINE1":"1 52310U 22041BB  23065.76985318 -.00009982  00000-0 -61020-3 0  9995","MEAN_MOTION":"15.08823285","EPOCH":"2023-03-06T18:28:35.314752","MEAN_ELEMENT_THEORY":"SGP4","ARG_OF_PERICENTER":"69.6324","SITE":"AFETR","DECAY_DATE":null,"EPHEMERIS_TYPE":"0","MEAN_MOTION_DOT":"-0.00009982","INCLINATION":"53.2162","OBJECT_TYPE":"PAYLOAD","REF_FRAME":"TEME","ECCENTRICITY":"0.00013420"},{"PERIAPSIS":"538.908","MEAN_MOTION_DDOT":"0.0000000000000","CLASSIFICATION_TYPE":"U","LAUNCH_DATE":"2022-04-21","SITE":"AFETR","DECAY_DATE":null,"ARG_OF_PERICENTER":"73.5754","MEAN_MOTION":"15.08848797","EPOCH":"2023-03-06T18:32:30.827328","MEAN_ELEMENT_THEORY":"SGP4","TLE_LINE1":"1 52311U 22041BC  23065.77257902  .00012203  00000-0  78329-3 0  9996","ECCENTRICITY":"0.00011720","REF_FRAME":"TEME","INCLINATION":"53.2171","MEAN_MOTION_DOT":"0.00012203","OBJECT_TYPE":"PAYLOAD","EPHEMERIS_TYPE":"0","TIME_SYSTEM":"UTC","RCS_SIZE":"LARGE","TLE_LINE2":"2 52311  53.2171 342.3536 0001172  73.5754 286.5367 15.08848797 49963","PERIOD":"95.437","OBJECT_ID":"2022-041BC","BSTAR":"0.00078329000000","FILE":"3853010","SEMIMAJOR_AXIS":"6917.854","NORAD_CAT_ID":"52311","CENTER_NAME":"EARTH","APOAPSIS":"540.529","MEAN_ANOMALY":"286.5367","GP_ID":"227601661","ELEMENT_SET_NO":"999","OBJECT_NAME":"STARLINK-3750","RA_OF_ASC_NODE":"342.3536","REV_AT_EPOCH":"4996","COUNTRY_CODE":"US"},{"TLE_LINE1":"1 52312U 22041BD  23065.79833488  .00005372  00000-0  35533-3 0  9997","MEAN_MOTION":"15.08839081","EPOCH":"2023-03-06T19:09:36.133632","MEAN_ELEMENT_THEORY":"SGP4","ARG_OF_PERICENTER":"70.0981","SITE":"AFETR","DECAY_DATE":null,"EPHEMERIS_TYPE":"0","OBJECT_TYPE":"PAYLOAD","MEAN_MOTION_DOT":"0.00005372","INCLINATION":"53.2161","ECCENTRICITY":"0.00008880","REF_FRAME":"TEME","PERIAPSIS":"539.134","CLASSIFICATION_TYPE":"U","LAUNCH_DATE":"2022-04-21","MEAN_MOTION_DDOT":"0.0000000000000","OBJECT_NAME":"STARLINK-3752","ELEMENT_SET_NO":"999","COUNTRY_CODE":"US","REV_AT_EPOCH":"4997","RA_OF_ASC_NODE":"342.1828","BSTAR":"0.00035533000000","OBJECT_ID":"2022-041BD","PERIOD":"95.438","TLE_LINE2":"2 52312  53.2161 342.1828 0000888  70.0981 290.0107 15.08839081 49971","RCS_SIZE":"LARGE","TIME_SYSTEM":"UTC","GP_ID":"227626933","MEAN_ANOMALY":"290.0107","APOAPSIS":"540.363","CENTER_NAME":"EARTH","NORAD_CAT_ID":"52312","SEMIMAJOR_AXIS":"6917.883","FILE":"3853141"},{"LAUNCH_DATE":"2022-04-21","CLASSIFICATION_TYPE":"U","MEAN_MOTION_DDOT":"0.0000000000000","PERIAPSIS":"538.806","EPHEMERIS_TYPE":"0","INCLINATION":"53.2156","MEAN_MOTION_DOT":"0.00008602","OBJECT_TYPE":"PAYLOAD","ECCENTRICITY":"0.00013680","REF_FRAME":"TEME","TLE_LINE1":"1 52313U 22041BE  23065.80201802  .00008602  00000-0  55794-3 0  9999","MEAN_MOTION":"15.08837599","EPOCH":"2023-03-06T19:14:54.356928","MEAN_ELEMENT_THEORY":"SGP4","ARG_OF_PERICENTER":"93.1765","DECAY_DATE":null,"SITE":"AFETR","GP_ID":"227627183","MEAN_ANOMALY":"266.9384","NORAD_CAT_ID":"52313","CENTER_NAME":"EARTH","APOAPSIS":"540.699","FILE":"3853141","SEMIMAJOR_AXIS":"6917.888","BSTAR":"0.00055794000000","OBJECT_ID":"2022-041BE","TLE_LINE2":"2 52313  53.2156 342.2210 0001368  93.1765 266.9384 15.08837599 49973","PERIOD":"95.438","TIME_SYSTEM":"UTC","RCS_SIZE":"LARGE","COUNTRY_CODE":"US","REV_AT_EPOCH":"4997","RA_OF_ASC_NODE":"342.2210","OBJECT_NAME":"STARLINK-3749","ELEMENT_SET_NO":"999"},{"TLE_LINE1":"1 52331U 22045A   23065.79097612  .00001587  00000-0  11780-3 0  9995","MEAN_MOTION":"15.08842005","MEAN_ELEMENT_THEORY":"SGP4","EPOCH":"2023-03-06T18:59:00.336768","ARG_OF_PERICENTER":"87.6098","SITE":"AFETR","DECAY_DATE":null,"EPHEMERIS_TYPE":"0","MEAN_MOTION_DOT":"0.00001587","INCLINATION":"53.2149","OBJECT_TYPE":"PAYLOAD","ECCENTRICITY":"0.00016520","REF_FRAME":"TEME","PERIAPSIS":"538.596","LAUNCH_DATE":"2022-04-29","CLASSIFICATION_TYPE":"U","MEAN_MOTION_DDOT":"0.0000000000000","OBJECT_NAME":"STARLINK-3889","ELEMENT_SET_NO":"999","REV_AT_EPOCH":"4974","COUNTRY_CODE":"US","RA_OF_ASC_NODE":"102.2669","BSTAR":"0.00011780000000","OBJECT_ID":"2022-045A","TLE_LINE2":"2 52331  53.2149 102.2669 0001652  87.6098 272.5083 15.08842005 49742","PERIOD":"95.437","TIME_SYSTEM":"UTC","RCS_SIZE":"LARGE","GP_ID":"227628433","MEAN_ANOMALY":"272.5083","NORAD_CAT_ID":"52331","CENTER_NAME":"EARTH","APOAPSIS":"540.882","FILE":"3853141","SEMIMAJOR_AXIS":"6917.874"}];
